API VERSION: 1.2
API SOURCE: NASA/JPL Horizons API



*******************************************************************************
Ephemeris / API_USER Sat Jul 11 19:36:46 2026 Pasadena, USA      / Horizons    
*******************************************************************************
Target body name: 2060 Chiron (1977 UB)           {source: JPL#171}
Center body name: Earth (399)                     {source: DE441}
Center-site name: GEOCENTRIC
*******************************************************************************
Start time      : A.D. 1965-Jan-01 00:00:00.0000 UT      
Stop  time      : A.D. 1970-Jan-01 00:00:00.0000 UT      
Step-size       : 2880 minutes
*******************************************************************************
Target pole/equ : undefined
Target radii    : 83. km                                                       
Center geodetic : 0.0, 0.0, -6378.137             {E-lon(deg),Lat(deg),Alt(km)}
Center cylindric: 0.0, 0.0, 0.0                   {E-lon(deg),Dxy(km),Dz(km)}
Center pole/equ : ITRF93                          {East-longitude positive}
Center radii    : 6378.137, 6378.137, 6356.752 km {Equator_a, b, pole_c}       
Target primary  : Sun
Vis. interferer : MOON (R_eq= 1737.400) km        {source: DE441}
Rel. light bend : Sun                             {source: DE441}
Rel. lght bnd GM: 1.3271E+11 km^3/s^2                                          
Small-body perts: Yes                             {source: SB441-N16}
Atmos refraction: NO (AIRLESS)
RA format       : DEG
Time format     : CAL 
Calendar mode   : Mixed Julian/Gregorian
EOP file        : eop.260710.p261006                                           
EOP coverage    : DATA-BASED 1962-JAN-20 TO 2026-JUL-10. PREDICTS-> 2026-OCT-05
Units conversion: 1 au= 149597870.700 km, c= 299792.458 km/s, 1 day= 86400.0 s 
Table cut-offs 1: Elevation (-90.0deg=NO ),Airmass (>38.000=NO), Daylight (NO )
Table cut-offs 2: Solar elongation (  0.0,180.0=NO ),Local Hour Angle( 0.0=NO )
Table cut-offs 3: RA/DEC angular rate (     0.0=NO )                           
*******************************************************************************
Initial IAU76/J2000 heliocentric ecliptic osculating elements (au, days, deg.):
  EPOCH=  2457916.5 ! 2017-Jun-12.00 (TDB)         Residual RMS= .19933        
   EC= .3824171374703196   QR= 8.427522999110739   TP= 2450143.7110841358      
   OM= 209.2011323125998   W=  339.6529896907077   IN= 6.94959060447848        
  Equivalent ICRF heliocentric cartesian coordinates (au, au/d):
   X= 1.843374627977423E+01  Y=-1.877818593473934E+00  Z= 5.548833989583914E-01
  VX= 7.316266023833624E-04 VY= 2.960187278972600E-03 VZ= 9.710586201315230E-04
Asteroid physical parameters (km, seconds, rotational period in hours):        
   GM= n.a.                RAD= 83.                ROTPER= 5.918               
   H= 5.54                 G= .150                 B-V= .704                   
                           ALBEDO= .150            STYP= Cb                    
*******************************************************************************
 Date__(UT)__HR:MN        ObsEcLon    ObsEcLat
**********************************************
$$SOE
 1967-May-15 00:00     358.8103452   3.6474361
 1967-May-17 00:00     358.8880213   3.6507631
 1967-May-19 00:00     358.9629491   3.6542125
 1967-May-21 00:00     359.0351035   3.6577794
 1967-May-23 00:00     359.1045028   3.6614599
 1967-May-25 00:00     359.1711248   3.6652501
 1967-May-27 00:00     359.2348653   3.6691463
 1967-May-29 00:00     359.2956031   3.6731442
 1967-May-31 00:00     359.3532603   3.6772389
 1967-Jun-02 00:00     359.4077991   3.6814244
 1967-Jun-04 00:00     359.4591991   3.6856947
 1967-Jun-06 00:00     359.5074403   3.6900429
 1967-Jun-08 00:00     359.5524885   3.6944620
 1967-Jun-10 00:00     359.5942839   3.6989446
 1967-Jun-12 00:00     359.6327442   3.7034831
 1967-Jun-14 00:00     359.6677940   3.7080702
 1967-Jun-16 00:00     359.6994051   3.7126986
 1967-Jun-18 00:00     359.7276089   3.7173621
 1967-Jun-20 00:00     359.7524503   3.7220544
 1967-Jun-22 00:00     359.7739189   3.7267699
 1967-Jun-24 00:00     359.7919400   3.7315029
 1967-Jun-26 00:00     359.8064406   3.7362467
 1967-Jun-28 00:00     359.8173965   3.7409943
 1967-Jun-30 00:00     359.8248213   3.7457380
 1967-Jul-02 00:00     359.8287411   3.7504693
 1967-Jul-04 00:00     359.8291773   3.7551796
 1967-Jul-06 00:00     359.8261346   3.7598600
 1967-Jul-08 00:00     359.8195919   3.7645014
 1967-Jul-10 00:00     359.8095111   3.7690945
 1967-Jul-12 00:00     359.7958778   3.7736306
 1967-Jul-14 00:00     359.7787414   3.7781013
 1967-Jul-16 00:00     359.7581995   3.7824992
 1967-Jul-18 00:00     359.7343330   3.7868171
 1967-Jul-20 00:00     359.7071606   3.7910482
 1967-Jul-22 00:00     359.6766608   3.7951854
 1967-Jul-24 00:00     359.6428314   3.7992213
 1967-Jul-26 00:00     359.6057191   3.8031478
 1967-Jul-28 00:00     359.5654030   3.8069563
 1967-Jul-30 00:00     359.5219686   3.8106379
 1967-Aug-01 00:00     359.4754928   3.8141836
 1967-Aug-03 00:00     359.4260337   3.8175844
 1967-Aug-05 00:00     359.3736255   3.8208312
 1967-Aug-07 00:00     359.3182928   3.8239151
 1967-Aug-09 00:00     359.2600998   3.8268281
 1967-Aug-11 00:00     359.1991847   3.8295629
 1967-Aug-13 00:00     359.1357132   3.8321132
 1967-Aug-15 00:00     359.0698041   3.8344734
 1967-Aug-17 00:00     359.0015172   3.8366380
 1967-Aug-19 00:00     358.9308980   3.8386013
 1967-Aug-21 00:00     358.8580241   3.8403575
 1967-Aug-23 00:00     358.7830161   3.8419004
 1967-Aug-25 00:00     358.7060182   3.8432237
 1967-Aug-27 00:00     358.6271736   3.8443210
 1967-Aug-29 00:00     358.5466114   3.8451862
 1967-Aug-31 00:00     358.4644401   3.8458131
 1967-Sep-02 00:00     358.3807472   3.8461962
 1967-Sep-04 00:00     358.2956190   3.8463305
 1967-Sep-06 00:00     358.2091920   3.8462119
 1967-Sep-08 00:00     358.1216767   3.8458376
 1967-Sep-10 00:00     358.0332834   3.8452061
 1967-Sep-12 00:00     357.9441497   3.8443163
 1967-Sep-14 00:00     357.8543640   3.8431675
 1967-Sep-16 00:00     357.7640239   3.8417588
 1967-Sep-18 00:00     357.6732643   3.8400894
 1967-Sep-20 00:00     357.5822527   3.8381582
 1967-Sep-22 00:00     357.4911677   3.8359642
 1967-Sep-24 00:00     357.4001780   3.8335067
 1967-Sep-26 00:00     357.3094317   3.8307852
 1967-Sep-28 00:00     357.2190535   3.8277997
 1967-Sep-30 00:00     357.1291511   3.8245508
 1967-Oct-02 00:00     357.0398390   3.8210398
 1967-Oct-04 00:00     356.9512861   3.8172691
 1967-Oct-06 00:00     356.8637246   3.8132425
 1967-Oct-08 00:00     356.7773572   3.8089650
 1967-Oct-10 00:00     356.6922949   3.8044419
 1967-Oct-12 00:00     356.6086143   3.7996787
 1967-Oct-14 00:00     356.5264199   3.7946805
 1967-Oct-16 00:00     356.4458526   3.7894524
 1967-Oct-18 00:00     356.3670726   3.7839993
 1967-Oct-20 00:00     356.2902388   3.7783261
 1967-Oct-22 00:00     356.2154911   3.7724380
 1967-Oct-24 00:00     356.1429426   3.7663403
 1967-Oct-26 00:00     356.0726813   3.7600388
 1967-Oct-28 00:00     356.0047849   3.7535397
 1967-Oct-30 00:00     355.9393475   3.7468498
 1967-Nov-01 00:00     355.8765166   3.7399771
 1967-Nov-03 00:00     355.8164831   3.7329303
 1967-Nov-05 00:00     355.7593837   3.7257192
 1967-Nov-07 00:00     355.7052575   3.7183537
 1967-Nov-09 00:00     355.6541254   3.7108433
 1967-Nov-11 00:00     355.6060515   3.7031967
 1967-Nov-13 00:00     355.5611326   3.6954224
 1967-Nov-15 00:00     355.5194725   3.6875287
 1967-Nov-17 00:00     355.4811639   3.6795236
 1967-Nov-19 00:00     355.4462744   3.6714151
 1967-Nov-21 00:00     355.4148412   3.6632110
 1967-Nov-23 00:00     355.3868791   3.6549197
 1967-Nov-25 00:00     355.3624025   3.6465494
 1967-Nov-27 00:00     355.3414543   3.6381092
 1967-Nov-29 00:00     355.3241263   3.6296085
 1967-Dec-01 00:00     355.3105285   3.6210575
 1967-Dec-03 00:00     355.3007013   3.6124668
 1967-Dec-05 00:00     355.2945956   3.6038466
 1967-Dec-07 00:00     355.2921625   3.5952066
 1967-Dec-09 00:00     355.2934060   3.5865555
 1967-Dec-11 00:00     355.2983586   3.5779015
 1967-Dec-13 00:00     355.3070513   3.5692523
 1967-Dec-15 00:00     355.3194970   3.5606153
 1967-Dec-17 00:00     355.3356818   3.5519977
 1967-Dec-19 00:00     355.3555613   3.5434064
 1967-Dec-21 00:00     355.3790753   3.5348485
 1967-Dec-23 00:00     355.4061774   3.5263314
 1967-Dec-25 00:00     355.4368620   3.5178625
 1967-Dec-27 00:00     355.4711631   3.5094498
 1967-Dec-29 00:00     355.5091048   3.5011017
 1967-Dec-31 00:00     355.5506363   3.4928264
 1968-Jan-02 00:00     355.5956398   3.4846319
 1968-Jan-04 00:00     355.6440141   3.4765252
 1968-Jan-06 00:00     355.6957140   3.4685123
 1968-Jan-08 00:00     355.7507185   3.4605990
 1968-Jan-10 00:00     355.8089982   3.4527901
 1968-Jan-12 00:00     355.8705025   3.4450904
 1968-Jan-14 00:00     355.9351541   3.4375043
 1968-Jan-16 00:00     356.0028494   3.4300362
 1968-Jan-18 00:00     356.0734766   3.4226905
 1968-Jan-20 00:00     356.1469535   3.4154716
 1968-Jan-22 00:00     356.2232490   3.4083845
 1968-Jan-24 00:00     356.3023556   3.4014344
 1968-Jan-26 00:00     356.3842285   3.3946267
 1968-Jan-28 00:00     356.4687513   3.3879665
 1968-Jan-30 00:00     356.5557708   3.3814585
 1968-Feb-01 00:00     356.6451657   3.3751063
 1968-Feb-03 00:00     356.7368660   3.3689132
 1968-Feb-05 00:00     356.8308189   3.3628815
 1968-Feb-07 00:00     356.9269582   3.3570132
 1968-Feb-09 00:00     357.0251944   3.3513103
 1968-Feb-11 00:00     357.1254142   3.3457743
 1968-Feb-13 00:00     357.2274835   3.3404069
 1968-Feb-15 00:00     357.3312693   3.3352098
 1968-Feb-17 00:00     357.4366819   3.3301848
 1968-Feb-19 00:00     357.5436875   3.3253345
 1968-Feb-21 00:00     357.6522540   3.3206614
 1968-Feb-23 00:00     357.7622879   3.3161685
 1968-Feb-25 00:00     357.8736369   3.3118580
